{"type": "FeatureCollection", "features": [ {"type": "Feature", "properties": {"norad_id": 36678, "name": "FENGYUN 1C DEB", "group": "fengyun-1c-debris", "lat": 35.697129772813206, "lon": -41.330961423312395, "alt_km": 667.8477617910985, "timestamp": "2025-12-08T03:50:07.285478+00:00", "meta": {"OBJECT_NAME": "FENGYUN 1C DEB", "OBJECT_ID": "1999-025DYY", "EPOCH": "2025-11-26T04:26:16.761408", "MEAN_MOTION": 14.37944691, "ECCENTRICITY": 0.01523469, "INCLINATION": 98.2901, "RA_OF_ASC_NODE": 313.1233, "ARG_OF_PERICENTER": 42.409, "MEAN_ANOMALY": 318.8754, "EPHEMERIS_TYPE": 0, "CLASSIFICATION_TYPE": "U", "NORAD_CAT_ID": 36678, "ELEMENT_SET_NO": 999, "REV_AT_EPOCH": 64751, "BSTAR": 0.00045851479, "MEAN_MOTION_DOT": 1.539e-05, "MEAN_MOTION_DDOT": 0}, "tle": {"line1": "1 36678U 99025DYY 25330.18491622  .00001539  00000+0  45851-3 0  9994", "line2": "2 36678  98.2901 313.1233 0152346  42.4090 318.8754 14.37944691647514"}}, "geometry": {"type": "Point", "coordinates": [-41.330961423312395, 35.697129772813206]}}, {"type": "Feature", "properties": {"norad_id": 36679, "name": "FENGYUN 1C DEB", "group": "fengyun-1c-debris", "lat": 36.57157672275193, "lon": -28.217886315961838, "alt_km": 852.2639906933318, "timestamp": "2025-12-08T03:50:07.285488+00:00", "meta": {"OBJECT_NAME": "FENGYUN 1C DEB", "OBJECT_ID": "1999-025DYZ", "EPOCH": "2025-12-02T05:45:43.795008", "MEAN_MOTION": 14.04609463, "ECCENTRICITY": 0.0085974, "INCLINATION": 98.8351, "RA_OF_ASC_NODE": 332.6471, "ARG_OF_PERICENTER": 122.6149, "MEAN_ANOMALY": 238.3353, "EPHEMERIS_TYPE": 0, "CLASSIFICATION_TYPE": "U", "NORAD_CAT_ID": 36679, "ELEMENT_SET_NO": 999, "REV_AT_EPOCH": 24401, "BSTAR": 0.00048108, "MEAN_MOTION_DOT": 7.53e-06, "MEAN_MOTION_DDOT": 0}, "tle": {"line1": "1 36679U 99025DYZ 25336.24009022  .00000753  00000+0  48108-3 0  9992", "line2": "2 36679  98.8351 332.6471 0085974 122.6149 238.3353 14.04609463244016"}}, "geometry": {"type": "Point", "coordinates": [-28.217886315961838, 36.57157672275193]}}, {"type": "Feature", "properties": {"norad_id": 36680, "name": "FENGYUN 1C DEB", "group": "fengyun-1c-debris", "lat": 45.98183846365076, "lon": 163.39738058668803, "alt_km": 910.8351750732563, "timestamp": "2025-12-08T03:50:07.285498+00:00", "meta": {"OBJECT_NAME": "FENGYUN 1C DEB", "OBJECT_ID": "1999-025DZA", "EPOCH": "2025-12-06T11:17:57.560640", "MEAN_MOTION": 14.18607408, "ECCENTRICITY": 0.01884816, "INCLINATION": 98.547, "RA_OF_ASC_NODE": 332.8154, "ARG_OF_PERICENTER": 267.6261, "MEAN_ANOMALY": 246.4746, "EPHEMERIS_TYPE": 0, "CLASSIFICATION_TYPE": "U", "NORAD_CAT_ID": 36680, "ELEMENT_SET_NO": 999, "REV_AT_EPOCH": 64208, "BSTAR": 0.0010620077, "MEAN_MOTION_DOT": 2.579e-05, "MEAN_MOTION_DDOT": 0}, "tle": {"line1": "1 36680U 99025DZA 25340.47080510  .00002579  00000+0  10620-2 0  9990", "line2": "2 36680  98.5470 332.8154 0188481 267.6261 246.4746 14.18607408642086"}}, "geometry": {"type": "Point", "coordinates": [163.39738058668803, 45.98183846365076]}}, {"type": "Feature", "properties": {"norad_id": 36681, "name": "FENGYUN 1C DEB", "group": "fengyun-1c-debris", "lat": 64.89962968791832, "lon": 179.9981645017279, "alt_km": 863.8810257098876, "timestamp": "2025-12-08T03:50:07.285508+00:00", "meta": {"OBJECT_NAME": "FENGYUN 1C DEB", "OBJECT_ID": "1999-025DZB", "EPOCH": "2025-11-19T06:21:10.816992", "MEAN_MOTION": 14.10187867, "ECCENTRICITY": 0.00454, "INCLINATION": 98.6964, "RA_OF_ASC_NODE": 322.6587, "ARG_OF_PERICENTER": 56.031, "MEAN_ANOMALY": 304.5163, "EPHEMERIS_TYPE": 0, "CLASSIFICATION_TYPE": "U", "NORAD_CAT_ID": 36681, "ELEMENT_SET_NO": 999, "REV_AT_EPOCH": 72427, "BSTAR": 0.00080116575, "MEAN_MOTION_DOT": 1.39e-05, "MEAN_MOTION_DDOT": 0}, "tle": {"line1": "1 36681U 99025DZB 25323.26470853  .00001390  00000+0  80117-3 0  9991", "line2": "2 36681  98.6964 322.6587 0045400  56.0310 304.5163 14.10187867724276"}}, "geometry": {"type": "Point", "coordinates": [179.9981645017279, 64.89962968791832]}}, {"type": "Feature", "properties": {"norad_id": 36682, "name": "FENGYUN 1C DEB", "group": "fengyun-1c-debris", "lat": -81.09990591033956, "lon": -41.099071642745365, "alt_km": 840.736720296848, "timestamp": "2025-12-08T03:50:07.285518+00:00", "meta": {"OBJECT_NAME": "FENGYUN 1C DEB", "OBJECT_ID": "1999-025DZC", "EPOCH": "2025-12-06T04:55:28.030656", "MEAN_MOTION": 13.7010637, "ECCENTRICITY": 0.02343342, "INCLINATION": 98.485, "RA_OF_ASC_NODE": 244.7666, "ARG_OF_PERICENTER": 294.8114, "MEAN_ANOMALY": 62.8827, "EPHEMERIS_TYPE": 0, "CLASSIFICATION_TYPE": "U", "NORAD_CAT_ID": 36682, "ELEMENT_SET_NO": 999, "REV_AT_EPOCH": 61303, "BSTAR": 0.0027042096, "MEAN_MOTION_DOT": 2.849e-05, "MEAN_MOTION_DDOT": 0}, "tle": {"line1": "1 36682U 99025DZC 25340.20518554  .00002849  00000+0  27042-2 0  9993", "line2": "2 36682  98.4850 244.7666 0234334 294.8114  62.8827 13.70106370613038"}}, "geometry": {"type": "Point", "coordinates": [-41.099071642745365, -81.09990591033956]}}, {"type": "Feature", "properties": {"norad_id": 36684, "name": "FENGYUN 1C DEB", "group": "fengyun-1c-debris", "lat": -55.351322339822936, "lon": -120.59658296812253, "alt_km": 592.1134534486873, "timestamp": "2025-12-08T03:50:07.285529+00:00", "meta": {"OBJECT_NAME": "FENGYUN 1C DEB", "OBJECT_ID": "1999-025DZE", "EPOCH": "2025-12-06T12:14:44.780928", "MEAN_MOTION": 14.95413524, "ECCENTRICITY": 0.00202722, "INCLINATION": 99.4556, "RA_OF_ASC_NODE": 71.3705, "ARG_OF_PERICENTER": 131.6133, "MEAN_ANOMALY": 228.6824, "EPHEMERIS_TYPE": 0, "CLASSIFICATION_TYPE": "U", "NORAD_CAT_ID": 36684, "ELEMENT_SET_NO": 999, "REV_AT_EPOCH": 65808, "BSTAR": 0.0068344415, "MEAN_MOTION_DOT": 0.00076555, "MEAN_MOTION_DDOT": 0}, "tle": {"line1": "1 36684U 99025DZE 25340.51024052  .00076555  00000+0  68344-2 0  9999", "line2": "2 36684  99.4556  71.3705 0020272 131.6133 228.6824 14.95413524658088"}}, "geometry": {"type": "Point", "coordinates": [-120.59658296812253, -55.351322339822936]}}, {"type": "Feature", "properties": {"norad_id": 36686, "name": "FENGYUN 1C DEB", "group": "fengyun-1c-debris", "lat": 66.28922497473106, "lon": 151.8796571431207, "alt_km": 558.0378062883092, "timestamp": "2025-12-08T03:50:07.285538+00:00", "meta": {"OBJECT_NAME": "FENGYUN 1C DEB", "OBJECT_ID": "1999-025DZG", "EPOCH": "2025-12-06T19:01:08.515488", "MEAN_MOTION": 14.77100685, "ECCENTRICITY": 0.01052852, "INCLINATION": 99.0007, "RA_OF_ASC_NODE": 171.5106, "ARG_OF_PERICENTER": 71.9527, "MEAN_ANOMALY": 289.3118, "EPHEMERIS_TYPE": 0, "CLASSIFICATION_TYPE": "U", "NORAD_CAT_ID": 36686, "ELEMENT_SET_NO": 999, "REV_AT_EPOCH": 65764, "BSTAR": 0.0014007334, "MEAN_MOTION_DOT": 0.00010793, "MEAN_MOTION_DDOT": 0}, "tle": {"line1": "1 36686U 99025DZG 25340.79245967  .00010793  00000+0  14007-2 0  9990", "line2": "2 36686  99.0007 171.5106 0105285  71.9527 289.3118 14.77100685657648"}}, "geometry": {"type": "Point", "coordinates": [151.8796571431207, 66.28922497473106]}}, {"type": "Feature", "properties": {"norad_id": 36687, "name": "FENGYUN 1C DEB", "group": "fengyun-1c-debris", "lat": -16.281952414849734, "lon": 71.34301496849007, "alt_km": 854.9049757369567, "timestamp": "2025-12-08T03:50:07.285548+00:00", "meta": {"OBJECT_NAME": "FENGYUN 1C DEB", "OBJECT_ID": "1999-025DZH", "EPOCH": "2025-12-03T00:48:50.166144", "MEAN_MOTION": 14.04517636, "ECCENTRICITY": 0.00903358, "INCLINATION": 98.7164, "RA_OF_ASC_NODE": 63.8535, "ARG_OF_PERICENTER": 292.8526, "MEAN_ANOMALY": 66.3122, "EPHEMERIS_TYPE": 0, "CLASSIFICATION_TYPE": "U", "NORAD_CAT_ID": 36687, "ELEMENT_SET_NO": 999, "REV_AT_EPOCH": 62586, "BSTAR": 0.00040937059, "MEAN_MOTION_DOT": 6.35e-06, "MEAN_MOTION_DDOT": 0}, "tle": {"line1": "1 36687U 99025DZH 25337.03391396  .00000635  00000+0  40937-3 0  9998", "line2": "2 36687  98.7164  63.8535 0090335 292.8526  66.3122 14.04517636625865"}}, "geometry": {"type": "Point", "coordinates": [71.34301496849007, -16.281952414849734]}}, {"type": "Feature", "properties": {"norad_id": 36689, "name": "FENGYUN 1C DEB", "group": "fengyun-1c-debris", "lat": -78.76432185264146, "lon": -74.82034637005388, "alt_km": 792.4368372097097, "timestamp": "2025-12-08T03:50:07.285558+00:00", "meta": {"OBJECT_NAME": "FENGYUN 1C DEB", "OBJECT_ID": "1999-025DZK", "EPOCH": "2025-11-28T10:04:14.213280", "MEAN_MOTION": 13.74189275, "ECCENTRICITY": 0.03131537, "INCLINATION": 98.4796, "RA_OF_ASC_NODE": 227.8431, "ARG_OF_PERICENTER": 334.7216, "MEAN_ANOMALY": 23.8887, "EPHEMERIS_TYPE": 0, "CLASSIFICATION_TYPE": "U", "NORAD_CAT_ID": 36689, "ELEMENT_SET_NO": 999, "REV_AT_EPOCH": 58016, "BSTAR": 0.0027905602, "MEAN_MOTION_DOT": 3.71e-05, "MEAN_MOTION_DDOT": 0}, "tle": {"line1": "1 36689U 99025DZK 25332.41960895  .00003710  00000+0  27906-2 0  9990", "line2": "2 36689  98.4796 227.8431 0313153 334.7216  23.8887 13.74189275580169"}}, "geometry": {"type": "Point", "coordinates": [-74.82034637005388, -78.76432185264146]}}, {"type": "Feature", "properties": {"norad_id": 36691, "name": "FENGYUN 1C DEB", "group": "fengyun-1c-debris", "lat": -71.53105438547941, "lon": 9.55365916959743, "alt_km": 802.319519195109, "timestamp": "2025-12-08T03:50:07.285568+00:00", "meta": {"OBJECT_NAME": "FENGYUN 1C DEB", "OBJECT_ID": "1999-025DZM", "EPOCH": "2025-12-06T06:06:14.665824", "MEAN_MOTION": 14.07078836, "ECCENTRICITY": 0.01290837, "INCLINATION": 98.6367, "RA_OF_ASC_NODE": 340.664, "ARG_OF_PERICENTER": 253.8833, "MEAN_ANOMALY": 104.8094, "EPHEMERIS_TYPE": 0, "CLASSIFICATION_TYPE": "U", "NORAD_CAT_ID": 36691, "ELEMENT_SET_NO": 999, "REV_AT_EPOCH": 59518, "BSTAR": 0.0035890577, "MEAN_MOTION_DOT": 6.435e-05, "MEAN_MOTION_DDOT": 0}, "tle": {"line1": "1 36691U 99025DZM 25340.25433641  .00006435  00000+0  35891-2 0  9997", "line2": "2 36691  98.6367 340.6640 0129083 253.8833 104.8094 14.07078836595182"}}, "geometry": {"type": "Point", "coordinates": [9.55365916959743, -71.53105438547941]}}]}